{
  "type": "FeatureCollection",
  "features": [
    {
      "type": "Feature",
      "properties": {
        "norad_id": 65731,
        "name": "1998-067XK",
        "group": "stations",
        "lat": 45.37688312284783,
        "lon": -117.30557239106892,
        "alt_km": 365.56394291683864,
        "timestamp": "2025-12-16T21:38:55.938461+00:00",
        "meta_object_name": "1998-067XK",
        "meta_object_id": "1998-067XK",
        "meta_epoch": "2025-12-15T17:36:02.993472",
        "meta_mean_motion": 15.66333624,
        "meta_eccentricity": 0.00048129,
        "meta_inclination": 51.6281,
        "meta_ra_of_asc_node": 122.0366,
        "meta_arg_of_pericenter": 264.6574,
        "meta_mean_anomaly": 95.3872,
        "meta_ephemeris_type": 0,
        "meta_classification_type": "U",
        "meta_norad_cat_id": 65731,
        "meta_element_set_no": 999,
        "meta_rev_at_epoch": 1361,
        "meta_bstar": 0.00074239237,
        "meta_mean_motion_dot": 0.00078692,
        "meta_mean_motion_ddot": 0,
        "tle_line1": "1 65731U 98067XK  25349.73336798  .00078692  00000+0  74239-3 0  9990",
        "tle_line2": "2 65731  51.6281 122.0366 0004812 264.6574  95.3872 15.66333624 13610"
      },
      "geometry": {
        "type": "Point",
        "coordinates": [
          -117.30557239106892,
          45.37688312284783
        ]
      }
    },
    {
      "type": "Feature",
      "properties": {
        "norad_id": 65732,
        "name": "RSP-03",
        "group": "stations",
        "lat": 35.35745080149933,
        "lon": -98.91354551296439,
        "alt_km": 358.2698740196993,
        "timestamp": "2025-12-16T21:38:55.938471+00:00",
        "meta_object_name": "RSP-03",
        "meta_object_id": "1998-067XL",
        "meta_epoch": "2025-12-15T09:56:23.959680",
        "meta_mean_motion": 15.69333488,
        "meta_eccentricity": 0.00056309,
        "meta_inclination": 51.6255,
        "meta_ra_of_asc_node": 122.8946,
        "meta_arg_of_pericenter": 270.0098,
        "meta_mean_anomaly": 90.0254,
        "meta_ephemeris_type": 0,
        "meta_classification_type": "U",
        "meta_norad_cat_id": 65732,
        "meta_element_set_no": 999,
        "meta_rev_at_epoch": 1358,
        "meta_bstar": 0.00085708712,
        "meta_mean_motion_dot": 0.00103156,
        "meta_mean_motion_ddot": 0,
        "tle_line1": "1 65732U 98067XL  25349.41416620  .00103156  00000+0  85709-3 0  9997",
        "tle_line2": "2 65732  51.6255 122.8946 0005630 270.0098  90.0254 15.69333488 13588"
      },
      "geometry": {
        "type": "Point",
        "coordinates": [
          -98.91354551296439,
          35.35745080149933
        ]
      }
    },
    {
      "type": "Feature",
      "properties": {
        "norad_id": 65733,
        "name": "GHS-01",
        "group": "stations",
        "lat": 23.845734681700804,
        "lon": -86.73849416883498,
        "alt_km": 342.0022271758544,
        "timestamp": "2025-12-16T21:38:55.938483+00:00",
        "meta_object_name": "GHS-01",
        "meta_object_id": "1998-067XM",
        "meta_epoch": "2025-12-15T17:38:00.008448",
        "meta_mean_motion": 15.76152522,
        "meta_eccentricity": 0.00075996,
        "meta_inclination": 51.6274,
        "meta_ra_of_asc_node": 119.7831,
        "meta_arg_of_pericenter": 301.7085,
        "meta_mean_anomaly": 58.3173,
        "meta_ephemeris_type": 0,
        "meta_classification_type": "U",
        "meta_norad_cat_id": 65733,
        "meta_element_set_no": 999,
        "meta_rev_at_epoch": 1365,
        "meta_bstar": 0.0011101643,
        "meta_mean_motion_dot": 0.00180872,
        "meta_mean_motion_ddot": 0,
        "tle_line1": "1 65733U 98067XM  25349.73472232  .00180872  00000+0  11102-2 0  9999",
        "tle_line2": "2 65733  51.6274 119.7831 0007599 301.7085  58.3173 15.76152522 13653"
      },
      "geometry": {
        "type": "Point",
        "coordinates": [
          -86.73849416883498,
          23.845734681700804
        ]
      }
    },
    {
      "type": "Feature",
      "properties": {
        "norad_id": 65941,
        "name": "YOTSUBA-KULOVER",
        "group": "stations",
        "lat": 30.446400219287778,
        "lon": -88.71122586355719,
        "alt_km": 384.6406813722351,
        "timestamp": "2025-12-16T21:38:55.938493+00:00",
        "meta_object_name": "YOTSUBA-KULOVER",
        "meta_object_id": "1998-067XN",
        "meta_epoch": "2025-12-16T08:45:11.376000",
        "meta_mean_motion": 15.59949944,
        "meta_eccentricity": 0.00014697,
        "meta_inclination": 51.6282,
        "meta_ra_of_asc_node": 121.7508,
        "meta_arg_of_pericenter": 292.0371,
        "meta_mean_anomaly": 68.0466,
        "meta_ephemeris_type": 0,
        "meta_classification_type": "U",
        "meta_norad_cat_id": 65941,
        "meta_element_set_no": 999,
        "meta_rev_at_epoch": 1042,
        "meta_bstar": 0.00068478904,
        "meta_mean_motion_dot": 0.00056217,
        "meta_mean_motion_ddot": 0,
        "tle_line1": "1 65941U 98067XN  25350.36471500  .00056217  00000+0  68479-3 0  9993",
        "tle_line2": "2 65941  51.6282 121.7508 0001469 292.0371  68.0466 15.59949944 10425"
      },
      "geometry": {
        "type": "Point",
        "coordinates": [
          -88.71122586355719,
          30.446400219287778
        ]
      }
    },
    {
      "type": "Feature",
      "properties": {
        "norad_id": 65942,
        "name": "BOTAN",
        "group": "stations",
        "lat": 13.915986029862179,
        "lon": -73.07205460756636,
        "alt_km": 376.2853371415422,
        "timestamp": "2025-12-16T21:38:55.938503+00:00",
        "meta_object_name": "BOTAN",
        "meta_object_id": "1998-067XP",
        "meta_epoch": "2025-12-16T08:41:17.733120",
        "meta_mean_motion": 15.63646784,
        "meta_eccentricity": 0.00028531,
        "meta_inclination": 51.6278,
        "meta_ra_of_asc_node": 120.983,
        "meta_arg_of_pericenter": 270.5076,
        "meta_mean_anomaly": 89.5591,
        "meta_ephemeris_type": 0,
        "meta_classification_type": "U",
        "meta_norad_cat_id": 65942,
        "meta_element_set_no": 999,
        "meta_rev_at_epoch": 1043,
        "meta_bstar": 0.00094318365,
        "meta_mean_motion_dot": 0.00090028,
        "meta_mean_motion_ddot": 0,
        "tle_line1": "1 65942U 98067XP  25350.36201080  .00090028  00000+0  94318-3 0  9997",
        "tle_line2": "2 65942  51.6278 120.9830 0002853 270.5076  89.5591 15.63646784 10430"
      },
      "geometry": {
        "type": "Point",
        "coordinates": [
          -73.07205460756636,
          13.915986029862179
        ]
      }
    },
    {
      "type": "Feature",
      "properties": {
        "norad_id": 65943,
        "name": "E-KAGAKU-1",
        "group": "stations",
        "lat": 30.849979174535033,
        "lon": -89.19644828185778,
        "alt_km": 383.7181882950272,
        "timestamp": "2025-12-16T21:38:55.938513+00:00",
        "meta_object_name": "E-KAGAKU-1",
        "meta_object_id": "1998-067XQ",
        "meta_epoch": "2025-12-15T15:50:32.577792",
        "meta_mean_motion": 15.59851021,
        "meta_eccentricity": 0.00016366,
        "meta_inclination": 51.6292,
        "meta_ra_of_asc_node": 125.299,
        "meta_arg_of_pericenter": 221.4661,
        "meta_mean_anomaly": 138.6208,
        "meta_ephemeris_type": 0,
        "meta_classification_type": "U",
        "meta_norad_cat_id": 65943,
        "meta_element_set_no": 999,
        "meta_rev_at_epoch": 1031,
        "meta_bstar": 0.0006409113,
        "meta_mean_motion_dot": 0.00052357,
        "meta_mean_motion_ddot": 0,
        "tle_line1": "1 65943U 98067XQ  25349.66009928  .00052357  00000+0  64091-3 0  9994",
        "tle_line2": "2 65943  51.6292 125.2990 0001636 221.4661 138.6208 15.59851021 10310"
      },
      "geometry": {
        "type": "Point",
        "coordinates": [
          -89.19644828185778,
          30.849979174535033
        ]
      }
    },
    {
      "type": "Feature",
      "properties": {
        "norad_id": 66052,
        "name": "HRC MONOBLOCK CAMERA",
        "group": "stations",
        "lat": 31.176603394329376,
        "lon": 149.39368181885348,
        "alt_km": 401.65925839712236,
        "timestamp": "2025-12-16T21:38:55.938523+00:00",
        "meta_object_name": "HRC MONOBLOCK CAMERA",
        "meta_object_id": "1998-067XR",
        "meta_epoch": "2025-12-15T22:19:37.394688",
        "meta_mean_motion": 15.54370373,
        "meta_eccentricity": 0.00028854,
        "meta_inclination": 51.6289,
        "meta_ra_of_asc_node": 125.5959,
        "meta_arg_of_pericenter": 198.9504,
        "meta_mean_anomaly": 161.1379,
        "meta_ephemeris_type": 0,
        "meta_classification_type": "U",
        "meta_norad_cat_id": 66052,
        "meta_element_set_no": 999,
        "meta_rev_at_epoch": 933,
        "meta_bstar": 0.00046656817,
        "meta_mean_motion_dot": 0.00030802,
        "meta_mean_motion_ddot": 0,
        "tle_line1": "1 66052U 98067XR  25349.93029392  .00030802  00000+0  46657-3 0  9992",
        "tle_line2": "2 66052  51.6289 125.5959 0002885 198.9504 161.1379 15.54370373  9338"
      },
      "geometry": {
        "type": "Point",
        "coordinates": [
          149.39368181885348,
          31.176603394329376
        ]
      }
    }
  ]
}